{
    "week": 294,
    "satellites": [
        {
            "Name": "COSMOS 2545 (760)",
            "Line1": "1 45358U 20018A   24333.29708315 -.00000043  00000+0  00000+0 0  9992",
            "Line2": "2 45358  64.6727 332.2392 0012154 249.8569 110.0404  2.13102616 36606",
            "SatelliteNumber": "45358",
            "Classification": "U",
            "LaunchYear": "20",
            "LaunchNumber": "018",
            "PieceOfLaunch": "A",
            "EpochYear": "24",
            "EpochDay": 333.29708315,
            "FirstDerivativeMeanMotion": -4.3e-07,
            "SecondDerivativeMeanMotion": "00000+0",
            "BSTAR": "00000+0",
            "SetNumber": "999",
            "Inclination": 64.6727,
            "RAAN": 332.2392,
            "Eccentricity": 0.0012154,
            "ArgumentOfPerigee": 249.8569,
            "MeanAnomaly": 110.0404,
            "MeanMotion": 2.13102616,
            "RevolutionNumber": "3660"
        },
        {
            "Name": "COSMOS 2547 (705K)",
            "Line1": "1 46805U 20075A   24333.48361860  .00000066  00000+0  00000+0 0  9998",
            "Line2": "2 46805  64.5957 211.3718 0006224 234.7021 125.3299  2.13102889 31859",
            "SatelliteNumber": "46805",
            "Classification": "U",
            "LaunchYear": "20",
            "LaunchNumber": "075",
            "PieceOfLaunch": "A",
            "EpochYear": "24",
            "EpochDay": 333.4836186,
            "FirstDerivativeMeanMotion": 6.6e-07,
            "SecondDerivativeMeanMotion": "00000+0",
            "BSTAR": "00000+0",
            "SetNumber": "999",
            "Inclination": 64.5957,
            "RAAN": 211.3718,
            "Eccentricity": 0.0006224,
            "ArgumentOfPerigee": 234.7021,
            "MeanAnomaly": 125.3299,
            "MeanMotion": 2.13102889,
            "RevolutionNumber": "3185"
        },
        {
            "Name": "COSMOS 2557 (706K)",
            "Line1": "1 52984U 22075A   24333.18032955 -.00000044  00000+0  00000+0 0  9999",
            "Line2": "2 52984  64.6037 334.3581 0014113 277.3650  82.5061  2.13102129 18656",
            "SatelliteNumber": "52984",
            "Classification": "U",
            "LaunchYear": "22",
            "LaunchNumber": "075",
            "PieceOfLaunch": "A",
            "EpochYear": "24",
            "EpochDay": 333.18032955,
            "FirstDerivativeMeanMotion": -4.4e-07,
            "SecondDerivativeMeanMotion": "00000+0",
            "BSTAR": "00000+0",
            "SetNumber": "999",
            "Inclination": 64.6037,
            "RAAN": 334.3581,
            "Eccentricity": 0.0014113,
            "ArgumentOfPerigee": 277.365,
            "MeanAnomaly": 82.5061,
            "MeanMotion": 2.13102129,
            "RevolutionNumber": "1865"
        },
        {
            "Name": "COSMOS 2559 (707K)",
            "Line1": "1 54031U 22130A   24333.59301521 -.00000044  00000+0  00000+0 0  9999",
            "Line2": "2 54031  64.5755 334.4556 0008206 233.4422 126.5131  2.13101437 16630",
            "SatelliteNumber": "54031",
            "Classification": "U",
            "LaunchYear": "22",
            "LaunchNumber": "130",
            "PieceOfLaunch": "A",
            "EpochYear": "24",
            "EpochDay": 333.59301521,
            "FirstDerivativeMeanMotion": -4.4e-07,
            "SecondDerivativeMeanMotion": "00000+0",
            "BSTAR": "00000+0",
            "SetNumber": "999",
            "Inclination": 64.5755,
            "RAAN": 334.4556,
            "Eccentricity": 0.0008206,
            "ArgumentOfPerigee": 233.4422,
            "MeanAnomaly": 126.5131,
            "MeanMotion": 2.13101437,
            "RevolutionNumber": "1663"
        },
        {
            "Name": "COSMOS 2564 (761)",
            "Line1": "1 54377U 22161A   24333.31395897  .00000064  00000+0  00000+0 0  9996",
            "Line2": "2 54377  64.7371 211.5118 0008324 210.5054 149.5353  2.13102153 15575",
            "SatelliteNumber": "54377",
            "Classification": "U",
            "LaunchYear": "22",
            "LaunchNumber": "161",
            "PieceOfLaunch": "A",
            "EpochYear": "24",
            "EpochDay": 333.31395897,
            "FirstDerivativeMeanMotion": 6.4e-07,
            "SecondDerivativeMeanMotion": "00000+0",
            "BSTAR": "00000+0",
            "SetNumber": "999",
            "Inclination": 64.7371,
            "RAAN": 211.5118,
            "Eccentricity": 0.0008324,
            "ArgumentOfPerigee": 210.5054,
            "MeanAnomaly": 149.5353,
            "MeanMotion": 2.13102153,
            "RevolutionNumber": "1557"
        },
        {
            "Name": "COSMOS 2569 (703K)",
            "Line1": "1 57517U 23114A   24333.32989257 -.00000008  00000+0  00000+0 0  9993",
            "Line2": "2 57517  64.9947  91.7512 0009552 289.3898  70.4887  2.13104143 10205",
            "SatelliteNumber": "57517",
            "Classification": "U",
            "LaunchYear": "23",
            "LaunchNumber": "114",
            "PieceOfLaunch": "A",
            "EpochYear": "24",
            "EpochDay": 333.32989257,
            "FirstDerivativeMeanMotion": -8e-08,
            "SecondDerivativeMeanMotion": "00000+0",
            "BSTAR": "00000+0",
            "SetNumber": "999",
            "Inclination": 64.9947,
            "RAAN": 91.7512,
            "Eccentricity": 0.0009552,
            "ArgumentOfPerigee": 289.3898,
            "MeanAnomaly": 70.4887,
            "MeanMotion": 2.13104143,
            "RevolutionNumber": "1020"
        }
    ]
}